STARLINK-35587          
1 66158U 25240N   25327.04873676  .00048032  00000+0  12012-2 0  9993
2 66158  53.1598 199.3944 0000789  63.7806 296.3280 15.39670925  5644
STARLINK-35586          
1 66159U 25240P   25327.78260142  .00060607  00000+0  10889-2 0  9995
2 66159  53.1589 195.4400 0004531 177.5178 182.5854 15.49311789  5761
STARLINK-35636          
1 66160U 25240Q   25327.24381870  .00043740  00000+0  10955-2 0  9993
2 66160  53.1594 198.4743 0001323  85.1911 274.9245 15.39667215  5674
STARLINK-35635          
1 66161U 25240R   25327.05371242  .00051334  00000+0  12849-2 0  9997
2 66161  53.1596 199.4240 0001331  74.3744 285.7408 15.39616343  5647
STARLINK-35633          
1 66162U 25240S   25327.23474264  .00122937  00000+0  21800-2 0  9991
2 66162  53.1595 197.7001 0001251  67.9795 292.1346 15.49358974  5689
STARLINK-35607          
1 66163U 25240T   25327.04087672  .00058919  00000+0  10589-2 0  9994
2 66163  53.1597 198.6259 0001715  60.3751 299.7429 15.49323971  5652
STARLINK-35614          
1 66164U 25240U   25325.94354562  .00037966  00000+0  68756-3 0  9996
2 66164  53.1591 203.8613 0001010  80.0063 280.1060 15.49300644  5481
STARLINK-35575          
1 66165U 25240V   25327.83335647 -.02046149  00000+0 -49519-1 0  9991
2 66165  53.1593 194.8517 0001137  74.8006  18.9981 15.44105956  5869
STARLINK-35624          
1 66166U 25240W   25327.23302414  .00062533  00000+0  11222-2 0  9994
2 66166  53.1595 197.6888 0001067  91.8998 268.2133 15.49339818  5685
STARLINK-35641          
1 66167U 25240X   25327.66668980  .00061538  00000+0  11072-2 0  9992
2 66167  53.1586 195.6180 0000833  98.1013 160.2732 15.49272784  5838
STARLINK-35578          
1 66168U 25240Y   25326.97396250  .00044062  00000+0  79532-3 0  9993
2 66168  53.1594 198.9173 0001266  78.4473 281.6678 15.49327344  5647
STARLINK-35638          
1 66169U 25240Z   25327.23268920  .00054264  00000+0  97819-3 0  9999
2 66169  53.1596 197.6874 0000569 178.8935 181.2075 15.49273167  5680
