CCSDS_OMM_VERS = 2.0
CREATION_DATE  = 
ORIGINATOR     = 

OBJECT_NAME    = STARLINK-35587
OBJECT_ID      = 2025-240N
CENTER_NAME    = EARTH
REF_FRAME      = TEME
TIME_SYSTEM    = UTC
MEAN_ELEMENT_THEORY = SGP/SGP4

EPOCH          = 2025-11-23T01:10:10.856064
MEAN_MOTION    = 15.39670925
ECCENTRICITY   = .00007895
INCLINATION    = 53.1598
RA_OF_ASC_NODE = 199.3944
ARG_OF_PERICENTER = 63.7806
MEAN_ANOMALY   = 296.3280

EPHEMERIS_TYPE = 0
CLASSIFICATION_TYPE = U
NORAD_CAT_ID   = 66158
ELEMENT_SET_NO = 999
REV_AT_EPOCH   = 564
BSTAR          = .12012305E-2
MEAN_MOTION_DOT = .48032E-3
MEAN_MOTION_DDOT = 0

CCSDS_OMM_VERS = 2.0
CREATION_DATE  = 
ORIGINATOR     = 

OBJECT_NAME    = STARLINK-35586
OBJECT_ID      = 2025-240P
CENTER_NAME    = EARTH
REF_FRAME      = TEME
TIME_SYSTEM    = UTC
MEAN_ELEMENT_THEORY = SGP/SGP4

EPOCH          = 2025-11-23T18:46:56.762688
MEAN_MOTION    = 15.49311789
ECCENTRICITY   = .0004531
INCLINATION    = 53.1589
RA_OF_ASC_NODE = 195.4400
ARG_OF_PERICENTER = 177.5178
MEAN_ANOMALY   = 182.5854

EPHEMERIS_TYPE = 0
CLASSIFICATION_TYPE = U
NORAD_CAT_ID   = 66159
ELEMENT_SET_NO = 999
REV_AT_EPOCH   = 576
BSTAR          = .10889E-2
MEAN_MOTION_DOT = .60607E-3
MEAN_MOTION_DDOT = 0

CCSDS_OMM_VERS = 2.0
CREATION_DATE  = 
ORIGINATOR     = 

OBJECT_NAME    = STARLINK-35636
OBJECT_ID      = 2025-240Q
CENTER_NAME    = EARTH
REF_FRAME      = TEME
TIME_SYSTEM    = UTC
MEAN_ELEMENT_THEORY = SGP/SGP4

EPOCH          = 2025-11-23T05:51:05.935680
MEAN_MOTION    = 15.39667215
ECCENTRICITY   = .0001323
INCLINATION    = 53.1594
RA_OF_ASC_NODE = 198.4743
ARG_OF_PERICENTER = 85.1911
MEAN_ANOMALY   = 274.9245

EPHEMERIS_TYPE = 0
CLASSIFICATION_TYPE = U
NORAD_CAT_ID   = 66160
ELEMENT_SET_NO = 999
REV_AT_EPOCH   = 567
BSTAR          = .10955E-2
MEAN_MOTION_DOT = .4374E-3
MEAN_MOTION_DDOT = 0

CCSDS_OMM_VERS = 2.0
CREATION_DATE  = 
ORIGINATOR     = 

OBJECT_NAME    = STARLINK-35635
OBJECT_ID      = 2025-240R
CENTER_NAME    = EARTH
REF_FRAME      = TEME
TIME_SYSTEM    = UTC
MEAN_ELEMENT_THEORY = SGP/SGP4

EPOCH          = 2025-11-23T01:17:20.753088
MEAN_MOTION    = 15.39616343
ECCENTRICITY   = .00013312
INCLINATION    = 53.1596
RA_OF_ASC_NODE = 199.4240
ARG_OF_PERICENTER = 74.3744
MEAN_ANOMALY   = 285.7408

EPHEMERIS_TYPE = 0
CLASSIFICATION_TYPE = U
NORAD_CAT_ID   = 66161
ELEMENT_SET_NO = 999
REV_AT_EPOCH   = 564
BSTAR          = .12848634E-2
MEAN_MOTION_DOT = .51334E-3
MEAN_MOTION_DDOT = 0

CCSDS_OMM_VERS = 2.0
CREATION_DATE  = 
ORIGINATOR     = 

OBJECT_NAME    = STARLINK-35633
OBJECT_ID      = 2025-240S
CENTER_NAME    = EARTH
REF_FRAME      = TEME
TIME_SYSTEM    = UTC
MEAN_ELEMENT_THEORY = SGP/SGP4

EPOCH          = 2025-11-23T05:38:01.764096
MEAN_MOTION    = 15.49358974
ECCENTRICITY   = .0001251
INCLINATION    = 53.1595
RA_OF_ASC_NODE = 197.7001
ARG_OF_PERICENTER = 67.9795
MEAN_ANOMALY   = 292.1346

EPHEMERIS_TYPE = 0
CLASSIFICATION_TYPE = U
NORAD_CAT_ID   = 66162
ELEMENT_SET_NO = 999
REV_AT_EPOCH   = 568
BSTAR          = .218E-2
MEAN_MOTION_DOT = .122937E-2
MEAN_MOTION_DDOT = 0

CCSDS_OMM_VERS = 2.0
CREATION_DATE  = 
ORIGINATOR     = 

OBJECT_NAME    = STARLINK-35607
OBJECT_ID      = 2025-240T
CENTER_NAME    = EARTH
REF_FRAME      = TEME
TIME_SYSTEM    = UTC
MEAN_ELEMENT_THEORY = SGP/SGP4

EPOCH          = 2025-11-23T00:58:51.748608
MEAN_MOTION    = 15.49323971
ECCENTRICITY   = .00017153
INCLINATION    = 53.1597
RA_OF_ASC_NODE = 198.6259
ARG_OF_PERICENTER = 60.3751
MEAN_ANOMALY   = 299.7429

EPHEMERIS_TYPE = 0
CLASSIFICATION_TYPE = U
NORAD_CAT_ID   = 66163
ELEMENT_SET_NO = 999
REV_AT_EPOCH   = 565
BSTAR          = .10588714E-2
MEAN_MOTION_DOT = .58919E-3
MEAN_MOTION_DDOT = 0

CCSDS_OMM_VERS = 2.0
CREATION_DATE  = 
ORIGINATOR     = 

OBJECT_NAME    = STARLINK-35614
OBJECT_ID      = 2025-240U
CENTER_NAME    = EARTH
REF_FRAME      = TEME
TIME_SYSTEM    = UTC
MEAN_ELEMENT_THEORY = SGP/SGP4

EPOCH          = 2025-11-21T22:38:42.341568
MEAN_MOTION    = 15.49300644
ECCENTRICITY   = .00010106
INCLINATION    = 53.1591
RA_OF_ASC_NODE = 203.8613
ARG_OF_PERICENTER = 80.0063
MEAN_ANOMALY   = 280.1060

EPHEMERIS_TYPE = 0
CLASSIFICATION_TYPE = U
NORAD_CAT_ID   = 66164
ELEMENT_SET_NO = 999
REV_AT_EPOCH   = 548
BSTAR          = .68756127E-3
MEAN_MOTION_DOT = .37966E-3
MEAN_MOTION_DDOT = 0

CCSDS_OMM_VERS = 2.0
CREATION_DATE  = 
ORIGINATOR     = 

OBJECT_NAME    = STARLINK-35575
OBJECT_ID      = 2025-240V
CENTER_NAME    = EARTH
REF_FRAME      = TEME
TIME_SYSTEM    = UTC
MEAN_ELEMENT_THEORY = SGP/SGP4

EPOCH          = 2025-11-23T20:00:01.999008
MEAN_MOTION    = 15.44105956
ECCENTRICITY   = .0001137
INCLINATION    = 53.1593
RA_OF_ASC_NODE = 194.8517
ARG_OF_PERICENTER = 74.8006
MEAN_ANOMALY   = 18.9981

EPHEMERIS_TYPE = 0
CLASSIFICATION_TYPE = U
NORAD_CAT_ID   = 66165
ELEMENT_SET_NO = 999
REV_AT_EPOCH   = 586
BSTAR          = -.49519E-1
MEAN_MOTION_DOT = -.2046149E-1
MEAN_MOTION_DDOT = 0

CCSDS_OMM_VERS = 2.0
CREATION_DATE  = 
ORIGINATOR     = 

OBJECT_NAME    = STARLINK-35624
OBJECT_ID      = 2025-240W
CENTER_NAME    = EARTH
REF_FRAME      = TEME
TIME_SYSTEM    = UTC
MEAN_ELEMENT_THEORY = SGP/SGP4

EPOCH          = 2025-11-23T05:35:33.285696
MEAN_MOTION    = 15.49339818
ECCENTRICITY   = .0001067
INCLINATION    = 53.1595
RA_OF_ASC_NODE = 197.6888
ARG_OF_PERICENTER = 91.8998
MEAN_ANOMALY   = 268.2133

EPHEMERIS_TYPE = 0
CLASSIFICATION_TYPE = U
NORAD_CAT_ID   = 66166
ELEMENT_SET_NO = 999
REV_AT_EPOCH   = 568
BSTAR          = .11222E-2
MEAN_MOTION_DOT = .62533E-3
MEAN_MOTION_DDOT = 0

CCSDS_OMM_VERS = 2.0
CREATION_DATE  = 
ORIGINATOR     = 

OBJECT_NAME    = STARLINK-35641
OBJECT_ID      = 2025-240X
CENTER_NAME    = EARTH
REF_FRAME      = TEME
TIME_SYSTEM    = UTC
MEAN_ELEMENT_THEORY = SGP/SGP4

EPOCH          = 2025-11-23T16:00:01.998720
MEAN_MOTION    = 15.49272784
ECCENTRICITY   = .0000833
INCLINATION    = 53.1586
RA_OF_ASC_NODE = 195.6180
ARG_OF_PERICENTER = 98.1013
MEAN_ANOMALY   = 160.2732

EPHEMERIS_TYPE = 0
CLASSIFICATION_TYPE = U
NORAD_CAT_ID   = 66167
ELEMENT_SET_NO = 999
REV_AT_EPOCH   = 583
BSTAR          = .11072E-2
MEAN_MOTION_DOT = .61538E-3
MEAN_MOTION_DDOT = 0

CCSDS_OMM_VERS = 2.0
CREATION_DATE  = 
ORIGINATOR     = 

OBJECT_NAME    = STARLINK-35578
OBJECT_ID      = 2025-240Y
CENTER_NAME    = EARTH
REF_FRAME      = TEME
TIME_SYSTEM    = UTC
MEAN_ELEMENT_THEORY = SGP/SGP4

EPOCH          = 2025-11-22T23:22:30.360000
MEAN_MOTION    = 15.49327344
ECCENTRICITY   = .0001266
INCLINATION    = 53.1594
RA_OF_ASC_NODE = 198.9173
ARG_OF_PERICENTER = 78.4473
MEAN_ANOMALY   = 281.6678

EPHEMERIS_TYPE = 0
CLASSIFICATION_TYPE = U
NORAD_CAT_ID   = 66168
ELEMENT_SET_NO = 999
REV_AT_EPOCH   = 564
BSTAR          = .79531792E-3
MEAN_MOTION_DOT = .44062E-3
MEAN_MOTION_DDOT = 0

CCSDS_OMM_VERS = 2.0
CREATION_DATE  = 
ORIGINATOR     = 

OBJECT_NAME    = STARLINK-35638
OBJECT_ID      = 2025-240Z
CENTER_NAME    = EARTH
REF_FRAME      = TEME
TIME_SYSTEM    = UTC
MEAN_ELEMENT_THEORY = SGP/SGP4

EPOCH          = 2025-11-23T05:35:04.346880
MEAN_MOTION    = 15.49273167
ECCENTRICITY   = .0000569
INCLINATION    = 53.1596
RA_OF_ASC_NODE = 197.6874
ARG_OF_PERICENTER = 178.8935
MEAN_ANOMALY   = 181.2075

EPHEMERIS_TYPE = 0
CLASSIFICATION_TYPE = U
NORAD_CAT_ID   = 66169
ELEMENT_SET_NO = 999
REV_AT_EPOCH   = 568
BSTAR          = .97819E-3
MEAN_MOTION_DOT = .54264E-3
MEAN_MOTION_DDOT = 0

